ONEWEB-0411             
1 51623U 22012B   25261.02757746 -.00000499  00000+0 -14646-2 0  9994
2 51623  87.8741  90.5402 0001568 107.6586 252.4712 13.10374665173647
ONEWEB-0415             
1 51624U 22012C   25261.02425193 -.00000606  00000+0 -17717-2 0  9995
2 51624  87.8736  90.5431 0001635  97.8773 262.2540 13.10373476173644
ONEWEB-0416             
1 51625U 22012D   25261.03588132 -.00000224  00000+0 -67770-3 0  9991
2 51625  87.8743  90.5606 0001745  89.2910 270.8417 13.10375817173680
ONEWEB-0422             
1 51626U 22012E   25260.92029692 -.00000005  00000+0 -46076-4 0  9994
2 51626  87.9054  59.9999 0001051  83.2127 276.9124 13.17647666177952
ONEWEB-0423             
1 51627U 22012F   25260.98947766 -.00000068  00000+0 -20940-3 0  9992
2 51627  87.9056  59.9951 0001729  90.1522 269.9808 13.17647016177850
ONEWEB-0425             
1 51628U 22012G   25261.04585500  .00000449  00000+0  12509-2 0  9997
2 51628  87.8740  90.5280 0001995  80.7999 279.3354 13.10374332173683
ONEWEB-0428             
1 51629U 22012H   25261.02591262 -.00000601  00000+0 -17587-2 0  9991
2 51629  87.8739  90.5536 0001503  87.9947 272.1353 13.10373881173647
ONEWEB-0431             
1 51630U 22012J   25260.99592309  .00000170  00000+0  45069-3 0  9997
2 51630  87.8738  90.5319 0001408 110.7523 249.3755 13.10371893173694
ONEWEB-0434             
1 51631U 22012K   25261.04918080  .00000578  00000+0  16205-2 0  9994
2 51631  87.8740  90.5629 0002221  75.5284 284.6090 13.10374195173689
ONEWEB-0435             
1 51632U 22012L   25260.98112140  .00000702  00000+0  19751-2 0  9998
2 51632  87.8735  90.5680 0001306  81.4484 278.6791 13.10371704173664
ONEWEB-0436             
1 51633U 22012M   25260.98104069  .00000015  00000+0  44896-5 0  9998
2 51633  87.9046  59.9771 0001507  95.5919 264.5385 13.17647212177836
ONEWEB-0438             
1 51634U 22012N   25261.04086883  .00000168  00000+0  44496-3 0  9993
2 51634  87.8741  90.5568 0001862  83.6950 276.4389 13.10375092173705
ONEWEB-0439             
1 51635U 22012P   25261.04419128  .00000351  00000+0  96890-3 0  9995
2 51635  87.8742  90.5446 0001664  84.3931 275.7386 13.10374815173687
ONEWEB-0442             
1 51636U 22012Q   25260.97346321  .00000042  00000+0  76172-4 0  9990
2 51636  87.9045  60.0325 0002391  91.6737 268.4668 13.17649021177829
ONEWEB-0443             
1 51637U 22012R   25260.99286061 -.00000096  00000+0 -27927-3 0  9991
2 51637  87.9039  60.0360 0001853  82.4621 277.6721 13.17648351177876
ONEWEB-0444             
1 51638U 22012S   25261.03422339 -.00000244  00000+0 -73640-3 0  9996
2 51638  87.8739  90.5467 0001589  82.6532 277.4776 13.10375927173691
ONEWEB-0445             
1 51639U 22012T   25260.97946639  .00000719  00000+0  20228-2 0  9991
2 51639  87.8746  90.5116 0001805  91.5836 268.5498 13.10373583173696
