[{"OBJECT_NAME":"ONEWEB-0411","OBJECT_ID":"2022-012B","EPOCH":"2025-09-18T00:39:42.692544","MEAN_MOTION":13.10374665,"ECCENTRICITY":0.00015682,"INCLINATION":87.8741,"RA_OF_ASC_NODE":90.5402,"ARG_OF_PERICENTER":107.6586,"MEAN_ANOMALY":252.4712,"EPHEMERIS_TYPE":0,"CLASSIFICATION_TYPE":"U","NORAD_CAT_ID":51623,"ELEMENT_SET_NO":999,"REV_AT_EPOCH":17364,"BSTAR":-0.0014646379,"MEAN_MOTION_DOT":-4.99e-6,"MEAN_MOTION_DDOT":0},{"OBJECT_NAME":"ONEWEB-0415","OBJECT_ID":"2022-012C","EPOCH":"2025-09-18T00:34:55.366752","MEAN_MOTION":13.10373476,"ECCENTRICITY":0.00016357,"INCLINATION":87.8736,"RA_OF_ASC_NODE":90.5431,"ARG_OF_PERICENTER":97.8773,"MEAN_ANOMALY":262.254,"EPHEMERIS_TYPE":0,"CLASSIFICATION_TYPE":"U","NORAD_CAT_ID":51624,"ELEMENT_SET_NO":999,"REV_AT_EPOCH":17364,"BSTAR":-0.0017716941,"MEAN_MOTION_DOT":-6.06e-6,"MEAN_MOTION_DDOT":0},{"OBJECT_NAME":"ONEWEB-0416","OBJECT_ID":"2022-012D","EPOCH":"2025-09-18T00:51:40.146048","MEAN_MOTION":13.10375817,"ECCENTRICITY":0.00017458,"INCLINATION":87.8743,"RA_OF_ASC_NODE":90.5606,"ARG_OF_PERICENTER":89.291,"MEAN_ANOMALY":270.8417,"EPHEMERIS_TYPE":0,"CLASSIFICATION_TYPE":"U","NORAD_CAT_ID":51625,"ELEMENT_SET_NO":999,"REV_AT_EPOCH":17368,"BSTAR":-0.00067769987,"MEAN_MOTION_DOT":-2.24e-6,"MEAN_MOTION_DDOT":0},{"OBJECT_NAME":"ONEWEB-0422","OBJECT_ID":"2022-012E","EPOCH":"2025-09-17T22:05:13.653888","MEAN_MOTION":13.17647666,"ECCENTRICITY":0.0001051,"INCLINATION":87.9054,"RA_OF_ASC_NODE":59.9999,"ARG_OF_PERICENTER":83.2127,"MEAN_ANOMALY":276.9124,"EPHEMERIS_TYPE":0,"CLASSIFICATION_TYPE":"U","NORAD_CAT_ID":51626,"ELEMENT_SET_NO":999,"REV_AT_EPOCH":17795,"BSTAR":-4.6076262e-5,"MEAN_MOTION_DOT":-5.0e-8,"MEAN_MOTION_DDOT":0},{"OBJECT_NAME":"ONEWEB-0423","OBJECT_ID":"2022-012F","EPOCH":"2025-09-17T23:44:50.869824","MEAN_MOTION":13.17647016,"ECCENTRICITY":0.00017296,"INCLINATION":87.9056,"RA_OF_ASC_NODE":59.9951,"ARG_OF_PERICENTER":90.1522,"MEAN_ANOMALY":269.9808,"EPHEMERIS_TYPE":0,"CLASSIFICATION_TYPE":"U","NORAD_CAT_ID":51627,"ELEMENT_SET_NO":999,"REV_AT_EPOCH":17785,"BSTAR":-0.0002094016,"MEAN_MOTION_DOT":-6.8e-7,"MEAN_MOTION_DDOT":0},{"OBJECT_NAME":"ONEWEB-0425","OBJECT_ID":"2022-012G","EPOCH":"2025-09-18T01:06:01.872000","MEAN_MOTION":13.10374332,"ECCENTRICITY":0.00019951,"INCLINATION":87.874,"RA_OF_ASC_NODE":90.528,"ARG_OF_PERICENTER":80.7999,"MEAN_ANOMALY":279.3354,"EPHEMERIS_TYPE":0,"CLASSIFICATION_TYPE":"U","NORAD_CAT_ID":51628,"ELEMENT_SET_NO":999,"REV_AT_EPOCH":17368,"BSTAR":0.0012508837,"MEAN_MOTION_DOT":4.49e-6,"MEAN_MOTION_DDOT":0},{"OBJECT_NAME":"ONEWEB-0428","OBJECT_ID":"2022-012H","EPOCH":"2025-09-18T00:37:18.850368","MEAN_MOTION":13.10373881,"ECCENTRICITY":0.00015039,"INCLINATION":87.8739,"RA_OF_ASC_NODE":90.5536,"ARG_OF_PERICENTER":87.9947,"MEAN_ANOMALY":272.1353,"EPHEMERIS_TYPE":0,"CLASSIFICATION_TYPE":"U","NORAD_CAT_ID":51629,"ELEMENT_SET_NO":999,"REV_AT_EPOCH":17364,"BSTAR":-0.001758693,"MEAN_MOTION_DOT":-6.01e-6,"MEAN_MOTION_DDOT":0},{"OBJECT_NAME":"ONEWEB-0431","OBJECT_ID":"2022-012J","EPOCH":"2025-09-17T23:54:07.754976","MEAN_MOTION":13.10371893,"ECCENTRICITY":0.00014087,"INCLINATION":87.8738,"RA_OF_ASC_NODE":90.5319,"ARG_OF_PERICENTER":110.7523,"MEAN_ANOMALY":249.3755,"EPHEMERIS_TYPE":0,"CLASSIFICATION_TYPE":"U","NORAD_CAT_ID":51630,"ELEMENT_SET_NO":999,"REV_AT_EPOCH":17369,"BSTAR":0.00045068919,"MEAN_MOTION_DOT":1.7e-6,"MEAN_MOTION_DDOT":0},{"OBJECT_NAME":"ONEWEB-0434","OBJECT_ID":"2022-012K","EPOCH":"2025-09-18T01:10:49.221120","MEAN_MOTION":13.10374195,"ECCENTRICITY":0.00022211,"INCLINATION":87.874,"RA_OF_ASC_NODE":90.5629,"ARG_OF_PERICENTER":75.5284,"MEAN_ANOMALY":284.609,"EPHEMERIS_TYPE":0,"CLASSIFICATION_TYPE":"U","NORAD_CAT_ID":51631,"ELEMENT_SET_NO":999,"REV_AT_EPOCH":17368,"BSTAR":0.0016204518,"MEAN_MOTION_DOT":5.78e-6,"MEAN_MOTION_DDOT":0},{"OBJECT_NAME":"ONEWEB-0435","OBJECT_ID":"2022-012L","EPOCH":"2025-09-17T23:32:48.888960","MEAN_MOTION":13.10371704,"ECCENTRICITY":0.00013066,"INCLINATION":87.8735,"RA_OF_ASC_NODE":90.568,"ARG_OF_PERICENTER":81.4484,"MEAN_ANOMALY":278.6791,"EPHEMERIS_TYPE":0,"CLASSIFICATION_TYPE":"U","NORAD_CAT_ID":51632,"ELEMENT_SET_NO":999,"REV_AT_EPOCH":17366,"BSTAR":0.0019750517,"MEAN_MOTION_DOT":7.02e-6,"MEAN_MOTION_DDOT":0},{"OBJECT_NAME":"ONEWEB-0436","OBJECT_ID":"2022-012M","EPOCH":"2025-09-17T23:32:41.915616","MEAN_MOTION":13.17647212,"ECCENTRICITY":0.00015073,"INCLINATION":87.9046,"RA_OF_ASC_NODE":59.9771,"ARG_OF_PERICENTER":95.5919,"MEAN_ANOMALY":264.5385,"EPHEMERIS_TYPE":0,"CLASSIFICATION_TYPE":"U","NORAD_CAT_ID":51633,"ELEMENT_SET_NO":999,"REV_AT_EPOCH":17783,"BSTAR":4.48961e-6,"MEAN_MOTION_DOT":1.5e-7,"MEAN_MOTION_DDOT":0},{"OBJECT_NAME":"ONEWEB-0438","OBJECT_ID":"2022-012N","EPOCH":"2025-09-18T00:58:51.066912","MEAN_MOTION":13.10375092,"ECCENTRICITY":0.00018623,"INCLINATION":87.8741,"RA_OF_ASC_NODE":90.5568,"ARG_OF_PERICENTER":83.695,"MEAN_ANOMALY":276.4389,"EPHEMERIS_TYPE":0,"CLASSIFICATION_TYPE":"U","NORAD_CAT_ID":51634,"ELEMENT_SET_NO":999,"REV_AT_EPOCH":17370,"BSTAR":0.00044496107,"MEAN_MOTION_DOT":1.68e-6,"MEAN_MOTION_DDOT":0},{"OBJECT_NAME":"ONEWEB-0439","OBJECT_ID":"2022-012P","EPOCH":"2025-09-18T01:03:38.126592","MEAN_MOTION":13.10374815,"ECCENTRICITY":0.0001664,"INCLINATION":87.8742,"RA_OF_ASC_NODE":90.5446,"ARG_OF_PERICENTER":84.3931,"MEAN_ANOMALY":275.7386,"EPHEMERIS_TYPE":0,"CLASSIFICATION_TYPE":"U","NORAD_CAT_ID":51635,"ELEMENT_SET_NO":999,"REV_AT_EPOCH":17368,"BSTAR":0.00096889816,"MEAN_MOTION_DOT":3.51e-6,"MEAN_MOTION_DDOT":0},{"OBJECT_NAME":"ONEWEB-0442","OBJECT_ID":"2022-012Q","EPOCH":"2025-09-17T23:21:47.221344","MEAN_MOTION":13.17649021,"ECCENTRICITY":0.00023919,"INCLINATION":87.9045,"RA_OF_ASC_NODE":60.0325,"ARG_OF_PERICENTER":91.6737,"MEAN_ANOMALY":268.4668,"EPHEMERIS_TYPE":0,"CLASSIFICATION_TYPE":"U","NORAD_CAT_ID":51636,"ELEMENT_SET_NO":999,"REV_AT_EPOCH":17782,"BSTAR":7.6171876e-5,"MEAN_MOTION_DOT":4.2e-7,"MEAN_MOTION_DDOT":0},{"OBJECT_NAME":"ONEWEB-0443","OBJECT_ID":"2022-012R","EPOCH":"2025-09-17T23:49:43.156704","MEAN_MOTION":13.17648351,"ECCENTRICITY":0.00018531,"INCLINATION":87.9039,"RA_OF_ASC_NODE":60.036,"ARG_OF_PERICENTER":82.4621,"MEAN_ANOMALY":277.6721,"EPHEMERIS_TYPE":0,"CLASSIFICATION_TYPE":"U","NORAD_CAT_ID":51637,"ELEMENT_SET_NO":999,"REV_AT_EPOCH":17787,"BSTAR":-0.00027926719,"MEAN_MOTION_DOT":-9.6e-7,"MEAN_MOTION_DDOT":0},{"OBJECT_NAME":"ONEWEB-0444","OBJECT_ID":"2022-012S","EPOCH":"2025-09-18T00:49:16.900896","MEAN_MOTION":13.10375927,"ECCENTRICITY":0.00015896,"INCLINATION":87.8739,"RA_OF_ASC_NODE":90.5467,"ARG_OF_PERICENTER":82.6532,"MEAN_ANOMALY":277.4776,"EPHEMERIS_TYPE":0,"CLASSIFICATION_TYPE":"U","NORAD_CAT_ID":51638,"ELEMENT_SET_NO":999,"REV_AT_EPOCH":17369,"BSTAR":-0.0007363992,"MEAN_MOTION_DOT":-2.44e-6,"MEAN_MOTION_DDOT":0},{"OBJECT_NAME":"ONEWEB-0445","OBJECT_ID":"2022-012T","EPOCH":"2025-09-17T23:30:25.896096","MEAN_MOTION":13.10373583,"ECCENTRICITY":0.00018052,"INCLINATION":87.8746,"RA_OF_ASC_NODE":90.5116,"ARG_OF_PERICENTER":91.5836,"MEAN_ANOMALY":268.5498,"EPHEMERIS_TYPE":0,"CLASSIFICATION_TYPE":"U","NORAD_CAT_ID":51639,"ELEMENT_SET_NO":999,"REV_AT_EPOCH":17369,"BSTAR":0.002022846,"MEAN_MOTION_DOT":7.19e-6,"MEAN_MOTION_DDOT":0}]
